start=new Date('2021-08-26T00:00:00.000Z').valueOf();
sats=[{"OBJECT_ID":"2021-044AT","REV_AT_EPOCH":"359","REF_FRAME":"TEME","RA_OF_ASC_NODE":"349.1475","CENTER_NAME":"EARTH","OBJECT_NAME":"STARLINK-2648","PERIOD":"95.591","FILE":"3103208","NORAD_CAT_ID":"48679","COUNTRY_CODE":"US","MEAN_MOTION_DOT":"-0.00027985","PERIAPSIS":"546.423","SEMIMAJOR_AXIS":"6925.316","DECAY_DATE":null,"EPHEMERIS_TYPE":"0","MEAN_MOTION_DDOT":"0.0000000000000","ECCENTRICITY":"0.00010950","BSTAR":"-0.00186670000000","APOAPSIS":"547.940","MEAN_MOTION":"15.06410503","OBJECT_TYPE":"PAYLOAD","MEAN_ELEMENT_THEORY":"SGP4","TIME_SYSTEM":"UTC","TLE_LINE2":"2 48679  53.0543 349.1475 0001095 107.6917 269.7073 15.06410503  3591","SITE":"AFETR","RCS_SIZE":"LARGE","ARG_OF_PERICENTER":"107.6917","GP_ID":"183447451","INCLINATION":"53.0543","ELEMENT_SET_NO":"999","TLE_LINE1":"1 48679U 21044AT  21237.91667824 -.00027985  00000-0 -18667-2 0  9996","LAUNCH_DATE":"2021-05-26","MEAN_ANOMALY":"269.7073","CLASSIFICATION_TYPE":"U","EPOCH":"2021-08-25T22:00:00.999936"},{"TLE_LINE1":"1 48680U 21044AU  21237.91667824 -.00027271  00000-0 -18183-2 0  9999","LAUNCH_DATE":"2021-05-26","MEAN_ANOMALY":"309.5264","CLASSIFICATION_TYPE":"U","EPOCH":"2021-08-25T22:00:00.999936","OBJECT_TYPE":"PAYLOAD","MEAN_MOTION":"15.06413630","APOAPSIS":"547.978","TIME_SYSTEM":"UTC","MEAN_ELEMENT_THEORY":"SGP4","SITE":"AFETR","TLE_LINE2":"2 48680  53.0534 349.1465 0001164  87.8935 309.5264 15.06413630  3597","ARG_OF_PERICENTER":"87.8935","RCS_SIZE":"LARGE","INCLINATION":"53.0534","ELEMENT_SET_NO":"999","GP_ID":"183447970","PERIAPSIS":"546.366","DECAY_DATE":null,"SEMIMAJOR_AXIS":"6925.307","EPHEMERIS_TYPE":"0","ECCENTRICITY":"0.00011640","MEAN_MOTION_DDOT":"0.0000000000000","BSTAR":"-0.00181830000000","OBJECT_ID":"2021-044AU","REF_FRAME":"TEME","REV_AT_EPOCH":"359","RA_OF_ASC_NODE":"349.1465","PERIOD":"95.591","FILE":"3103208","CENTER_NAME":"EARTH","OBJECT_NAME":"STARLINK-2649","MEAN_MOTION_DOT":"-0.00027271","COUNTRY_CODE":"US","NORAD_CAT_ID":"48680"},{"PERIAPSIS":"347.611","EPHEMERIS_TYPE":"0","DECAY_DATE":null,"SEMIMAJOR_AXIS":"6727.964","ECCENTRICITY":"0.00032970","MEAN_MOTION_DDOT":"0.0000000000000","BSTAR":"0.00045237000000","REV_AT_EPOCH":"369","REF_FRAME":"TEME","OBJECT_ID":"2021-044AV","RA_OF_ASC_NODE":"331.7380","FILE":"3103208","PERIOD":"91.535","CENTER_NAME":"EARTH","OBJECT_NAME":"STARLINK-2725","COUNTRY_CODE":"US","MEAN_MOTION_DOT":"0.00063304","NORAD_CAT_ID":"48681","TLE_LINE1":"1 48681U 21044AV  21237.91667824  .00063304  00000-0  45237-3 0  9996","MEAN_ANOMALY":"87.9855","LAUNCH_DATE":"2021-05-26","EPOCH":"2021-08-25T22:00:00.999936","CLASSIFICATION_TYPE":"U","TIME_SYSTEM":"UTC","MEAN_ELEMENT_THEORY":"SGP4","OBJECT_TYPE":"PAYLOAD","APOAPSIS":"352.048","MEAN_MOTION":"15.73175701","SITE":"AFETR","TLE_LINE2":"2 48681  53.0484 331.7380 0003297  10.8189  87.9855 15.73175701  3693","RCS_SIZE":"LARGE","ARG_OF_PERICENTER":"10.8189","INCLINATION":"53.0484","ELEMENT_SET_NO":"999","GP_ID":"183447887"},{"NORAD_CAT_ID":"48682","COUNTRY_CODE":"US","MEAN_MOTION_DOT":"-0.00103690","OBJECT_NAME":"STARLINK-2743","CENTER_NAME":"EARTH","FILE":"3103208","PERIOD":"91.528","RA_OF_ASC_NODE":"331.7361","OBJECT_ID":"2021-044AW","REV_AT_EPOCH":"368","REF_FRAME":"TEME","BSTAR":"-0.00074042000000","MEAN_MOTION_DDOT":"0.0000000000000","ECCENTRICITY":"0.00035790","SEMIMAJOR_AXIS":"6727.663","DECAY_DATE":null,"EPHEMERIS_TYPE":"0","PERIAPSIS":"347.120","GP_ID":"183447707","ELEMENT_SET_NO":"999","INCLINATION":"53.0464","ARG_OF_PERICENTER":"9.0300","RCS_SIZE":"LARGE","TLE_LINE2":"2 48682  53.0464 331.7361 0003579   9.0300  90.6397 15.73281481  3683","SITE":"AFETR","APOAPSIS":"351.936","MEAN_MOTION":"15.73281481","OBJECT_TYPE":"PAYLOAD","MEAN_ELEMENT_THEORY":"SGP4","TIME_SYSTEM":"UTC","CLASSIFICATION_TYPE":"U","EPOCH":"2021-08-25T22:00:00.999936","LAUNCH_DATE":"2021-05-26","MEAN_ANOMALY":"90.6397","TLE_LINE1":"1 48682U 21044AW  21237.91667824 -.00103690  00000-0 -74042-3 0  9998"},{"REF_FRAME":"TEME","REV_AT_EPOCH":"369","OBJECT_ID":"2021-044AX","RA_OF_ASC_NODE":"331.7353","FILE":"3103208","PERIOD":"91.529","OBJECT_NAME":"STARLINK-2756","CENTER_NAME":"EARTH","MEAN_MOTION_DOT":"-0.00077857","COUNTRY_CODE":"US","NORAD_CAT_ID":"48683","PERIAPSIS":"347.220","EPHEMERIS_TYPE":"0","DECAY_DATE":null,"SEMIMAJOR_AXIS":"6727.695","ECCENTRICITY":"0.00034780","MEAN_MOTION_DDOT":"0.0000000000000","BSTAR":"-0.00055343000000","TIME_SYSTEM":"UTC","MEAN_ELEMENT_THEORY":"SGP4","OBJECT_TYPE":"PAYLOAD","MEAN_MOTION":"15.73270304","APOAPSIS":"351.900","SITE":"AFETR","TLE_LINE2":"2 48683  53.0465 331.7353 0003478   6.1691  94.1365 15.73270304  3692","RCS_SIZE":"LARGE","ARG_OF_PERICENTER":"6.1691","ELEMENT_SET_NO":"999","INCLINATION":"53.0465","GP_ID":"183447796","TLE_LINE1":"1 48683U 21044AX  21237.91667824 -.00077857  00000-0 -55343-3 0  9997","MEAN_ANOMALY":"94.1365","LAUNCH_DATE":"2021-05-26","EPOCH":"2021-08-25T22:00:00.999936","CLASSIFICATION_TYPE":"U"},{"BSTAR":"-0.00071493000000","MEAN_MOTION_DDOT":"0.0000000000000","ECCENTRICITY":"0.00035700","SEMIMAJOR_AXIS":"6727.629","DECAY_DATE":null,"EPHEMERIS_TYPE":"0","PERIAPSIS":"347.092","NORAD_CAT_ID":"48684","MEAN_MOTION_DOT":"-0.00100233","COUNTRY_CODE":"US","CENTER_NAME":"EARTH","OBJECT_NAME":"STARLINK-2741","FILE":"3103208","PERIOD":"91.528","RA_OF_ASC_NODE":"331.7338","OBJECT_ID":"2021-044AY","REF_FRAME":"TEME","REV_AT_EPOCH":"369","CLASSIFICATION_TYPE":"U","EPOCH":"2021-08-25T22:00:00.999936","MEAN_ANOMALY":"87.7751","LAUNCH_DATE":"2021-05-26","TLE_LINE1":"1 48684U 21044AY  21237.91667824 -.00100233  00000-0 -71493-3 0  9997","GP_ID":"183447627","ELEMENT_SET_NO":"999","INCLINATION":"53.0465","RCS_SIZE":"LARGE","ARG_OF_PERICENTER":"13.1504","SITE":"AFETR","TLE_LINE2":"2 48684  53.0465 331.7338 0003570  13.1504  87.7751 15.73293398  3695","MEAN_MOTION":"15.73293398","APOAPSIS":"351.896","OBJECT_TYPE":"PAYLOAD","MEAN_ELEMENT_THEORY":"SGP4","TIME_SYSTEM":"UTC"},{"MEAN_ANOMALY":"91.3327","LAUNCH_DATE":"2021-05-26","TLE_LINE1":"1 48685U 21044AZ  21237.91667824 -.00097965  00000-0 -69862-3 0  9992","CLASSIFICATION_TYPE":"U","EPOCH":"2021-08-25T22:00:00.999936","SITE":"AFETR","TLE_LINE2":"2 48685  53.0468 331.7354 0004021  10.2600  91.3327 15.73285083  3696","MEAN_MOTION":"15.73285083","APOAPSIS":"352.223","OBJECT_TYPE":"PAYLOAD","MEAN_ELEMENT_THEORY":"SGP4","TIME_SYSTEM":"UTC","GP_ID":"183447544","ELEMENT_SET_NO":"999","INCLINATION":"53.0468","ARG_OF_PERICENTER":"10.2600","RCS_SIZE":"LARGE","SEMIMAJOR_AXIS":"6727.653","DECAY_DATE":null,"EPHEMERIS_TYPE":"0","PERIAPSIS":"346.812","BSTAR":"-0.00069862000000","MEAN_MOTION_DDOT":"0.0000000000000","ECCENTRICITY":"0.00040210","RA_OF_ASC_NODE":"331.7354","OBJECT_ID":"2021-044AZ","REV_AT_EPOCH":"369","REF_FRAME":"TEME","NORAD_CAT_ID":"48685","COUNTRY_CODE":"US","MEAN_MOTION_DOT":"-0.00097965","OBJECT_NAME":"STARLINK-2751","CENTER_NAME":"EARTH","FILE":"3103208","PERIOD":"91.528"},{"REV_AT_EPOCH":"369","REF_FRAME":"TEME","OBJECT_ID":"2021-044BA","RA_OF_ASC_NODE":"331.7302","CENTER_NAME":"EARTH","OBJECT_NAME":"STARLINK-2629","FILE":"3103208","PERIOD":"91.531","NORAD_CAT_ID":"48686","MEAN_MOTION_DOT":"-0.00001476","COUNTRY_CODE":"US","PERIAPSIS":"347.203","EPHEMERIS_TYPE":"0","SEMIMAJOR_AXIS":"6727.786","DECAY_DATE":null,"MEAN_MOTION_DDOT":"0.0000000000000","ECCENTRICITY":"0.00036380","BSTAR":"-0.00000604860000","MEAN_ELEMENT_THEORY":"SGP4","TIME_SYSTEM":"UTC","APOAPSIS":"352.098","MEAN_MOTION":"15.73238455","OBJECT_TYPE":"PAYLOAD","SITE":"AFETR","TLE_LINE2":"2 48686  53.0465 331.7302 0003638   8.1566  94.0708 15.73238455  3691","RCS_SIZE":"LARGE","ARG_OF_PERICENTER":"8.1566","GP_ID":"183447363","INCLINATION":"53.0465","ELEMENT_SET_NO":"999","TLE_LINE1":"1 48686U 21044BA  21237.91667824 -.00001476  00000-0 -60486-5 0  9990","MEAN_ANOMALY":"94.0708","LAUNCH_DATE":"2021-05-26","CLASSIFICATION_TYPE":"U","EPOCH":"2021-08-25T22:00:00.999936"},{"SITE":"AFETR","TLE_LINE2":"2 48687  53.0464 331.7277 0003566   8.7231  94.1451 15.73272413  3695","TIME_SYSTEM":"UTC","MEAN_ELEMENT_THEORY":"SGP4","OBJECT_TYPE":"PAYLOAD","APOAPSIS":"351.953","MEAN_MOTION":"15.73272413","ELEMENT_SET_NO":"999","INCLINATION":"53.0464","GP_ID":"183447452","ARG_OF_PERICENTER":"8.7231","RCS_SIZE":"LARGE","LAUNCH_DATE":"2021-05-26","MEAN_ANOMALY":"94.1451","TLE_LINE1":"1 48687U 21044BB  21237.91667824 -.00083956  00000-0 -59750-3 0  9994","EPOCH":"2021-08-25T22:00:00.999936","CLASSIFICATION_TYPE":"U","RA_OF_ASC_NODE":"331.7277","REV_AT_EPOCH":"369","REF_FRAME":"TEME","OBJECT_ID":"2021-044BB","MEAN_MOTION_DOT":"-0.00083956","COUNTRY_CODE":"US","NORAD_CAT_ID":"48687","PERIOD":"91.529","FILE":"3103208","OBJECT_NAME":"STARLINK-2627","CENTER_NAME":"EARTH","EPHEMERIS_TYPE":"0","DECAY_DATE":null,"SEMIMAJOR_AXIS":"6727.689","PERIAPSIS":"347.155","BSTAR":"-0.00059750000000","ECCENTRICITY":"0.00035660","MEAN_MOTION_DDOT":"0.0000000000000"},{"SEMIMAJOR_AXIS":"6727.685","DECAY_DATE":null,"EPHEMERIS_TYPE":"0","PERIAPSIS":"346.750","BSTAR":"-0.00064421000000","MEAN_MOTION_DDOT":"0.0000000000000","ECCENTRICITY":"0.00041610","RA_OF_ASC_NODE":"331.7261","OBJECT_ID":"2021-044BC","REV_AT_EPOCH":"369","REF_FRAME":"TEME","NORAD_CAT_ID":"48688","MEAN_MOTION_DOT":"-0.00090424","COUNTRY_CODE":"US","CENTER_NAME":"EARTH","OBJECT_NAME":"STARLINK-2742","FILE":"3103208","PERIOD":"91.529","MEAN_ANOMALY":"97.2354","LAUNCH_DATE":"2021-05-26","TLE_LINE1":"1 48688U 21044BC  21237.91667824 -.00090424  00000-0 -64421-3 0  9994","CLASSIFICATION_TYPE":"U","EPOCH":"2021-08-25T22:00:00.999936","SITE":"AFETR","TLE_LINE2":"2 48688  53.0463 331.7261 0004161   6.2786  97.2354 15.73273768  3698","MEAN_MOTION":"15.73273768","APOAPSIS":"352.349","OBJECT_TYPE":"PAYLOAD","MEAN_ELEMENT_THEORY":"SGP4","TIME_SYSTEM":"UTC","GP_ID":"183447971","INCLINATION":"53.0463","ELEMENT_SET_NO":"999","ARG_OF_PERICENTER":"6.2786","RCS_SIZE":"LARGE"}];
